{
  "type": "FeatureCollection",
  "features": [
    {
      "type": "Feature",
      "properties": {
        "norad_id": 31383,
        "name": "FENGYUN 1C DEB",
        "group": "fengyun-1c-debris",
        "lat": -11.065438633014896,
        "lon": -133.37054594045756,
        "alt_km": 924.9557913617318,
        "timestamp": "2025-12-12T11:38:31.694326+00:00",
        "meta_object_name": "FENGYUN 1C DEB",
        "meta_object_id": "1999-025BSP",
        "meta_epoch": "2025-12-09T02:34:44.796288",
        "meta_mean_motion": 14.05688126,
        "meta_eccentricity": 0.01079363,
        "meta_inclination": 99.068,
        "meta_ra_of_asc_node": 45.0398,
        "meta_arg_of_pericenter": 327.5363,
        "meta_mean_anomaly": 61.476,
        "meta_ephemeris_type": 0,
        "meta_classification_type": "U",
        "meta_norad_cat_id": 31383,
        "meta_element_set_no": 999,
        "meta_rev_at_epoch": 95318,
        "meta_bstar": 0.0010265056,
        "meta_mean_motion_dot": 1.718e-05,
        "meta_mean_motion_ddot": 0,
        "tle_line1": "1 31383U 99025BSP 25343.10746292  .00001718  00000+0  10265-2 0  9993",
        "tle_line2": "2 31383  99.0680  45.0398 0107936 327.5363  61.4760 14.05688126953187"
      },
      "geometry": {
        "type": "Point",
        "coordinates": [
          -133.37054594045756,
          -11.065438633014896
        ]
      }
    },
    {
      "type": "Feature",
      "properties": {
        "norad_id": 31384,
        "name": "FENGYUN 1C DEB",
        "group": "fengyun-1c-debris",
        "lat": -79.34376921129386,
        "lon": 80.31508854022009,
        "alt_km": 1186.1305539580926,
        "timestamp": "2025-12-12T11:38:31.694335+00:00",
        "meta_object_name": "FENGYUN 1C DEB",
        "meta_object_id": "1999-025BSQ",
        "meta_epoch": "2025-12-08T04:13:31.416384",
        "meta_mean_motion": 13.86050931,
        "meta_eccentricity": 0.04406196,
        "meta_inclination": 98.4582,
        "meta_ra_of_asc_node": 308.6672,
        "meta_arg_of_pericenter": 54.2034,
        "meta_mean_anomaly": 322.9436,
        "meta_ephemeris_type": 0,
        "meta_classification_type": "U",
        "meta_norad_cat_id": 31384,
        "meta_element_set_no": 999,
        "meta_rev_at_epoch": 92961,
        "meta_bstar": 0.0028698607,
        "meta_mean_motion_dot": 7.083e-05,
        "meta_mean_motion_ddot": 0,
        "tle_line1": "1 31384U 99025BSQ 25342.17605806  .00007083  00000+0  28699-2 0  9996",
        "tle_line2": "2 31384  98.4582 308.6672 0440619  54.2034 322.9436 13.86050931929613"
      },
      "geometry": {
        "type": "Point",
        "coordinates": [
          80.31508854022009,
          -79.34376921129386
        ]
      }
    },
    {
      "type": "Feature",
      "properties": {
        "norad_id": 31385,
        "name": "FENGYUN 1C DEB",
        "group": "fengyun-1c-debris",
        "lat": 5.466338397455703,
        "lon": 75.75878346767409,
        "alt_km": 685.9274298061,
        "timestamp": "2025-12-12T11:38:31.694349+00:00",
        "meta_object_name": "FENGYUN 1C DEB",
        "meta_object_id": "1999-025BSR",
        "meta_epoch": "2025-12-11T12:25:21.129888",
        "meta_mean_motion": 14.43996087,
        "meta_eccentricity": 0.01346934,
        "meta_inclination": 98.9541,
        "meta_ra_of_asc_node": 75.6054,
        "meta_arg_of_pericenter": 59.1958,
        "meta_mean_anomaly": 321.1651,
        "meta_ephemeris_type": 0,
        "meta_classification_type": "U",
        "meta_norad_cat_id": 31385,
        "meta_element_set_no": 999,
        "meta_rev_at_epoch": 98597,
        "meta_bstar": 0.00023196707,
        "meta_mean_motion_dot": 8.32e-06,
        "meta_mean_motion_ddot": 0,
        "tle_line1": "1 31385U 99025BSR 25345.51760567  .00000832  00000+0  23197-3 0  9998",
        "tle_line2": "2 31385  98.9541  75.6054 0134693  59.1958 321.1651 14.43996087985976"
      },
      "geometry": {
        "type": "Point",
        "coordinates": [
          75.75878346767409,
          5.466338397455703
        ]
      }
    },
    {
      "type": "Feature",
      "properties": {
        "norad_id": 31386,
        "name": "FENGYUN 1C DEB",
        "group": "fengyun-1c-debris",
        "lat": 65.1012949661332,
        "lon": -159.9319718127594,
        "alt_km": 1079.2142377283353,
        "timestamp": "2025-12-12T11:38:31.694359+00:00",
        "meta_object_name": "FENGYUN 1C DEB",
        "meta_object_id": "1999-025BSS",
        "meta_epoch": "2025-12-09T12:03:04.178016",
        "meta_mean_motion": 13.86004786,
        "meta_eccentricity": 0.01975639,
        "meta_inclination": 98.4411,
        "meta_ra_of_asc_node": 358.7188,
        "meta_arg_of_pericenter": 293.251,
        "meta_mean_anomaly": 64.7958,
        "meta_ephemeris_type": 0,
        "meta_classification_type": "U",
        "meta_norad_cat_id": 31386,
        "meta_element_set_no": 999,
        "meta_rev_at_epoch": 93817,
        "meta_bstar": 0.0030328716,
        "meta_mean_motion_dot": 4.028e-05,
        "meta_mean_motion_ddot": 0,
        "tle_line1": "1 31386U 99025BSS 25343.50213169  .00004028  00000+0  30329-2 0  9992",
        "tle_line2": "2 31386  98.4411 358.7188 0197563 293.2510  64.7958 13.86004786938173"
      },
      "geometry": {
        "type": "Point",
        "coordinates": [
          -159.9319718127594,
          65.1012949661332
        ]
      }
    },
    {
      "type": "Feature",
      "properties": {
        "norad_id": 31387,
        "name": "FENGYUN 1C DEB",
        "group": "fengyun-1c-debris",
        "lat": 79.3610719187376,
        "lon": 165.65386430301183,
        "alt_km": 827.5610896357548,
        "timestamp": "2025-12-12T11:38:31.694369+00:00",
        "meta_object_name": "FENGYUN 1C DEB",
        "meta_object_id": "1999-025BST",
        "meta_epoch": "2025-12-11T11:26:56.009760",
        "meta_mean_motion": 14.13568059,
        "meta_eccentricity": 0.02416825,
        "meta_inclination": 99.1682,
        "meta_ra_of_asc_node": 223.9054,
        "meta_arg_of_pericenter": 174.8047,
        "meta_mean_anomaly": 185.5719,
        "meta_ephemeris_type": 0,
        "meta_classification_type": "U",
        "meta_norad_cat_id": 31387,
        "meta_element_set_no": 999,
        "meta_rev_at_epoch": 96279,
        "meta_bstar": 0.00032251549,
        "meta_mean_motion_dot": 7.54e-06,
        "meta_mean_motion_ddot": 0,
        "tle_line1": "1 31387U 99025BST 25345.47703715  .00000754  00000+0  32252-3 0  9992",
        "tle_line2": "2 31387  99.1682 223.9054 0241682 174.8047 185.5719 14.13568059962799"
      },
      "geometry": {
        "type": "Point",
        "coordinates": [
          165.65386430301183,
          79.3610719187376
        ]
      }
    },
    {
      "type": "Feature",
      "properties": {
        "norad_id": 31388,
        "name": "FENGYUN 1C DEB",
        "group": "fengyun-1c-debris",
        "lat": -45.410848972812374,
        "lon": -16.498817001960926,
        "alt_km": 887.463308660479,
        "timestamp": "2025-12-12T11:38:31.694379+00:00",
        "meta_object_name": "FENGYUN 1C DEB",
        "meta_object_id": "1999-025BSU",
        "meta_epoch": "2025-12-10T22:28:10.240896",
        "meta_mean_motion": 14.07424902,
        "meta_eccentricity": 0.0046406,
        "meta_inclination": 98.8049,
        "meta_ra_of_asc_node": 332.9458,
        "meta_arg_of_pericenter": 206.1162,
        "meta_mean_anomaly": 184.0725,
        "meta_ephemeris_type": 0,
        "meta_classification_type": "U",
        "meta_norad_cat_id": 31388,
        "meta_element_set_no": 999,
        "meta_rev_at_epoch": 96416,
        "meta_bstar": 0.00012078,
        "meta_mean_motion_dot": 1.62e-06,
        "meta_mean_motion_ddot": 0,
        "tle_line1": "1 31388U 99025BSU 25344.93622964  .00000162  00000+0  12078-3 0  9996",
        "tle_line2": "2 31388  98.8049 332.9458 0046406 206.1162 184.0725 14.07424902964161"
      },
      "geometry": {
        "type": "Point",
        "coordinates": [
          -16.498817001960926,
          -45.410848972812374
        ]
      }
    },
    {
      "type": "Feature",
      "properties": {
        "norad_id": 31389,
        "name": "FENGYUN 1C DEB",
        "group": "fengyun-1c-debris",
        "lat": -11.430708601128677,
        "lon": -29.990425746820012,
        "alt_km": 673.6011504264188,
        "timestamp": "2025-12-12T11:38:31.694391+00:00",
        "meta_object_name": "FENGYUN 1C DEB",
        "meta_object_id": "1999-025BSV",
        "meta_epoch": "2025-12-11T10:14:59.164224",
        "meta_mean_motion": 14.60924151,
        "meta_eccentricity": 0.00291056,
        "meta_inclination": 99.0429,
        "meta_ra_of_asc_node": 150.7001,
        "meta_arg_of_pericenter": 192.9916,
        "meta_mean_anomaly": 197.0182,
        "meta_ephemeris_type": 0,
        "meta_classification_type": "U",
        "meta_norad_cat_id": 31389,
        "meta_element_set_no": 999,
        "meta_rev_at_epoch": 96478,
        "meta_bstar": 0.01070091,
        "meta_mean_motion_dot": 0.00053066,
        "meta_mean_motion_ddot": 0,
        "tle_line1": "1 31389U 99025BSV 25345.42707366  .00053066  00000+0  10701-1 0  9992",
        "tle_line2": "2 31389  99.0429 150.7001 0029105 192.9916 197.0182 14.60924151964782"
      },
      "geometry": {
        "type": "Point",
        "coordinates": [
          -29.990425746820012,
          -11.430708601128677
        ]
      }
    }
  ]
}